SL-14 R/B               
1 16792U 86046B   26049.13953949  .00000442  00000+0  48228-4 0  9990
2 16792  82.4798  98.6588 0021622 294.0660  65.8294 14.85570683123501
SL-14 R/B               
1 16882U 86055B   26048.74184014  .00000490  00000+0  53594-4 0  9990
2 16882  82.5232 145.4188 0019866  41.9489  73.6666 14.85621876116409
AJISAI (EGS)            
1 16908U 86061A   26049.19101744 -.00000093  00000+0  32992-4 0  9994
2 16908  50.0083 153.3063 0011235 236.7589 148.2450 12.44515327465570
COSMOS 1812             
1 17295U 87003A   26049.00652468  .00373263  58741-4  67068-3 0  9997
2 17295  82.4747 218.0733 0003154 300.7824  59.3144 16.01632199141313
SL-14 R/B               
1 17567U 87024B   26049.18007788  .00000445  00000+0  47887-4 0  9997
2 17567  82.5274 111.1024 0017332 329.6752  30.3460 14.86112962 85230
COSMOS 1833             
1 17589U 87027A   26049.10999495 -.00000055  00000+0 -35347-5 0  9999
2 17589  70.9229   7.1664 0024867 241.2324 118.6299 14.13057371  7555
SL-16 R/B               
1 17590U 87027B   26049.14038695  .00000235  00000+0  14012-3 0  9993
2 17590  71.0041 317.6904 0004526 177.6363 182.4783 14.17163935 12575
SL-14 R/B               
1 17912U 87038B   26049.16499529  .00000466  00000+0  51252-4 0  9996
2 17912  82.5036 315.1978 0018040 226.2376 133.7348 14.85350367 76331
COSMOS 1844             
1 17973U 87041A   26049.16592962  .00000314  00000+0  18778-3 0  9999
2 17973  70.8981  75.3576 0029048  49.0120 311.3507 14.14549374   826
SL-14 R/B               
1 18153U 87055B   26048.33711134  .00000581  00000+0  64092-4 0  9994
2 18153  82.5010   8.2086 0022326  81.3555 279.0190 14.85603165 66911
COSMOS 1867             
1 18187U 87060A   26049.15945865 -.00000034  00000+0  24720-4 0  9996
2 18187  65.0124   1.3968 0014195 277.5428  82.4044 14.31499786 17144
SL-14 R/B               
1 18749U 88001B   26049.00457792  .00000495  00000+0  54531-4 0  9990
2 18749  82.5117 213.8735 0016861 306.4096  53.5565 14.85502304 39108
