CCSDS_OMM_VERS = 2.0
CREATION_DATE  = 
ORIGINATOR     = 

OBJECT_NAME    = SL-14 R/B
OBJECT_ID      = 1986-046B
CENTER_NAME    = EARTH
REF_FRAME      = TEME
TIME_SYSTEM    = UTC
MEAN_ELEMENT_THEORY = SGP/SGP4

EPOCH          = 2026-02-18T03:20:56.211936
MEAN_MOTION    = 14.85570683
ECCENTRICITY   = .0021622
INCLINATION    = 82.4798
RA_OF_ASC_NODE = 98.6588
ARG_OF_PERICENTER = 294.0660
MEAN_ANOMALY   = 65.8294

EPHEMERIS_TYPE = 0
CLASSIFICATION_TYPE = U
NORAD_CAT_ID   = 16792
ELEMENT_SET_NO = 999
REV_AT_EPOCH   = 12350
BSTAR          = .48228E-4
MEAN_MOTION_DOT = .442E-5
MEAN_MOTION_DDOT = 0

CCSDS_OMM_VERS = 2.0
CREATION_DATE  = 
ORIGINATOR     = 

OBJECT_NAME    = SL-14 R/B
OBJECT_ID      = 1986-055B
CENTER_NAME    = EARTH
REF_FRAME      = TEME
TIME_SYSTEM    = UTC
MEAN_ELEMENT_THEORY = SGP/SGP4

EPOCH          = 2026-02-17T17:48:14.988096
MEAN_MOTION    = 14.85621876
ECCENTRICITY   = .0019866
INCLINATION    = 82.5232
RA_OF_ASC_NODE = 145.4188
ARG_OF_PERICENTER = 41.9489
MEAN_ANOMALY   = 73.6666

EPHEMERIS_TYPE = 0
CLASSIFICATION_TYPE = U
NORAD_CAT_ID   = 16882
ELEMENT_SET_NO = 999
REV_AT_EPOCH   = 11640
BSTAR          = .53594E-4
MEAN_MOTION_DOT = .49E-5
MEAN_MOTION_DDOT = 0

CCSDS_OMM_VERS = 2.0
CREATION_DATE  = 
ORIGINATOR     = 

OBJECT_NAME    = AJISAI (EGS)
OBJECT_ID      = 1986-061A
CENTER_NAME    = EARTH
REF_FRAME      = TEME
TIME_SYSTEM    = UTC
MEAN_ELEMENT_THEORY = SGP/SGP4

EPOCH          = 2026-02-18T04:35:03.906816
MEAN_MOTION    = 12.44515327
ECCENTRICITY   = .0011235
INCLINATION    = 50.0083
RA_OF_ASC_NODE = 153.3063
ARG_OF_PERICENTER = 236.7589
MEAN_ANOMALY   = 148.2450

EPHEMERIS_TYPE = 0
CLASSIFICATION_TYPE = U
NORAD_CAT_ID   = 16908
ELEMENT_SET_NO = 999
REV_AT_EPOCH   = 46557
BSTAR          = .32992E-4
MEAN_MOTION_DOT = -.93E-6
MEAN_MOTION_DDOT = 0

CCSDS_OMM_VERS = 2.0
CREATION_DATE  = 
ORIGINATOR     = 

OBJECT_NAME    = COSMOS 1812
OBJECT_ID      = 1987-003A
CENTER_NAME    = EARTH
REF_FRAME      = TEME
TIME_SYSTEM    = UTC
MEAN_ELEMENT_THEORY = SGP/SGP4

EPOCH          = 2026-02-18T00:09:23.732352
MEAN_MOTION    = 16.01632199
ECCENTRICITY   = .0003154
INCLINATION    = 82.4747
RA_OF_ASC_NODE = 218.0733
ARG_OF_PERICENTER = 300.7824
MEAN_ANOMALY   = 59.3144

EPHEMERIS_TYPE = 0
CLASSIFICATION_TYPE = U
NORAD_CAT_ID   = 17295
ELEMENT_SET_NO = 999
REV_AT_EPOCH   = 14131
BSTAR          = .67068E-3
MEAN_MOTION_DOT = .373263E-2
MEAN_MOTION_DDOT = .58741E-4

CCSDS_OMM_VERS = 2.0
CREATION_DATE  = 
ORIGINATOR     = 

OBJECT_NAME    = SL-14 R/B
OBJECT_ID      = 1987-024B
CENTER_NAME    = EARTH
REF_FRAME      = TEME
TIME_SYSTEM    = UTC
MEAN_ELEMENT_THEORY = SGP/SGP4

EPOCH          = 2026-02-18T04:19:18.728832
MEAN_MOTION    = 14.86112962
ECCENTRICITY   = .0017332
INCLINATION    = 82.5274
RA_OF_ASC_NODE = 111.1024
ARG_OF_PERICENTER = 329.6752
MEAN_ANOMALY   = 30.3460

EPHEMERIS_TYPE = 0
CLASSIFICATION_TYPE = U
NORAD_CAT_ID   = 17567
ELEMENT_SET_NO = 999
REV_AT_EPOCH   = 8523
BSTAR          = .47887E-4
MEAN_MOTION_DOT = .445E-5
MEAN_MOTION_DDOT = 0

CCSDS_OMM_VERS = 2.0
CREATION_DATE  = 
ORIGINATOR     = 

OBJECT_NAME    = COSMOS 1833
OBJECT_ID      = 1987-027A
CENTER_NAME    = EARTH
REF_FRAME      = TEME
TIME_SYSTEM    = UTC
MEAN_ELEMENT_THEORY = SGP/SGP4

EPOCH          = 2026-02-18T02:38:23.563680
MEAN_MOTION    = 14.13057371
ECCENTRICITY   = .0024867
INCLINATION    = 70.9229
RA_OF_ASC_NODE = 7.1664
ARG_OF_PERICENTER = 241.2324
MEAN_ANOMALY   = 118.6299

EPHEMERIS_TYPE = 0
CLASSIFICATION_TYPE = U
NORAD_CAT_ID   = 17589
ELEMENT_SET_NO = 999
REV_AT_EPOCH   = 755
BSTAR          = -.35347E-5
MEAN_MOTION_DOT = -.55E-6
MEAN_MOTION_DDOT = 0

CCSDS_OMM_VERS = 2.0
CREATION_DATE  = 
ORIGINATOR     = 

OBJECT_NAME    = SL-16 R/B
OBJECT_ID      = 1987-027B
CENTER_NAME    = EARTH
REF_FRAME      = TEME
TIME_SYSTEM    = UTC
MEAN_ELEMENT_THEORY = SGP/SGP4

EPOCH          = 2026-02-18T03:22:09.432480
MEAN_MOTION    = 14.17163935
ECCENTRICITY   = .0004526
INCLINATION    = 71.0041
RA_OF_ASC_NODE = 317.6904
ARG_OF_PERICENTER = 177.6363
MEAN_ANOMALY   = 182.4783

EPHEMERIS_TYPE = 0
CLASSIFICATION_TYPE = U
NORAD_CAT_ID   = 17590
ELEMENT_SET_NO = 999
REV_AT_EPOCH   = 1257
BSTAR          = .14012E-3
MEAN_MOTION_DOT = .235E-5
MEAN_MOTION_DDOT = 0

CCSDS_OMM_VERS = 2.0
CREATION_DATE  = 
ORIGINATOR     = 

OBJECT_NAME    = SL-14 R/B
OBJECT_ID      = 1987-038B
CENTER_NAME    = EARTH
REF_FRAME      = TEME
TIME_SYSTEM    = UTC
MEAN_ELEMENT_THEORY = SGP/SGP4

EPOCH          = 2026-02-18T03:57:35.593056
MEAN_MOTION    = 14.85350367
ECCENTRICITY   = .001804
INCLINATION    = 82.5036
RA_OF_ASC_NODE = 315.1978
ARG_OF_PERICENTER = 226.2376
MEAN_ANOMALY   = 133.7348

EPHEMERIS_TYPE = 0
CLASSIFICATION_TYPE = U
NORAD_CAT_ID   = 17912
ELEMENT_SET_NO = 999
REV_AT_EPOCH   = 7633
BSTAR          = .51252E-4
MEAN_MOTION_DOT = .466E-5
MEAN_MOTION_DDOT = 0

CCSDS_OMM_VERS = 2.0
CREATION_DATE  = 
ORIGINATOR     = 

OBJECT_NAME    = COSMOS 1844
OBJECT_ID      = 1987-041A
CENTER_NAME    = EARTH
REF_FRAME      = TEME
TIME_SYSTEM    = UTC
MEAN_ELEMENT_THEORY = SGP/SGP4

EPOCH          = 2026-02-18T03:58:56.319168
MEAN_MOTION    = 14.14549374
ECCENTRICITY   = .0029048
INCLINATION    = 70.8981
RA_OF_ASC_NODE = 75.3576
ARG_OF_PERICENTER = 49.0120
MEAN_ANOMALY   = 311.3507

EPHEMERIS_TYPE = 0
CLASSIFICATION_TYPE = U
NORAD_CAT_ID   = 17973
ELEMENT_SET_NO = 999
REV_AT_EPOCH   = 82
BSTAR          = .18778E-3
MEAN_MOTION_DOT = .314E-5
MEAN_MOTION_DDOT = 0

CCSDS_OMM_VERS = 2.0
CREATION_DATE  = 
ORIGINATOR     = 

OBJECT_NAME    = SL-14 R/B
OBJECT_ID      = 1987-055B
CENTER_NAME    = EARTH
REF_FRAME      = TEME
TIME_SYSTEM    = UTC
MEAN_ELEMENT_THEORY = SGP/SGP4

EPOCH          = 2026-02-17T08:05:26.419776
MEAN_MOTION    = 14.85603165
ECCENTRICITY   = .00223264
INCLINATION    = 82.5010
RA_OF_ASC_NODE = 8.2086
ARG_OF_PERICENTER = 81.3555
MEAN_ANOMALY   = 279.0190

EPHEMERIS_TYPE = 0
CLASSIFICATION_TYPE = U
NORAD_CAT_ID   = 18153
ELEMENT_SET_NO = 999
REV_AT_EPOCH   = 6691
BSTAR          = .64091803E-4
MEAN_MOTION_DOT = .581E-5
MEAN_MOTION_DDOT = 0

CCSDS_OMM_VERS = 2.0
CREATION_DATE  = 
ORIGINATOR     = 

OBJECT_NAME    = COSMOS 1867
OBJECT_ID      = 1987-060A
CENTER_NAME    = EARTH
REF_FRAME      = TEME
TIME_SYSTEM    = UTC
MEAN_ELEMENT_THEORY = SGP/SGP4

EPOCH          = 2026-02-18T03:49:37.227360
MEAN_MOTION    = 14.31499786
ECCENTRICITY   = .0014195
INCLINATION    = 65.0124
RA_OF_ASC_NODE = 1.3968
ARG_OF_PERICENTER = 277.5428
MEAN_ANOMALY   = 82.4044

EPHEMERIS_TYPE = 0
CLASSIFICATION_TYPE = U
NORAD_CAT_ID   = 18187
ELEMENT_SET_NO = 999
REV_AT_EPOCH   = 1714
BSTAR          = .2472E-4
MEAN_MOTION_DOT = -.34E-6
MEAN_MOTION_DDOT = 0

CCSDS_OMM_VERS = 2.0
CREATION_DATE  = 
ORIGINATOR     = 

OBJECT_NAME    = SL-14 R/B
OBJECT_ID      = 1988-001B
CENTER_NAME    = EARTH
REF_FRAME      = TEME
TIME_SYSTEM    = UTC
MEAN_ELEMENT_THEORY = SGP/SGP4

EPOCH          = 2026-02-18T00:06:35.532288
MEAN_MOTION    = 14.85502304
ECCENTRICITY   = .0016861
INCLINATION    = 82.5117
RA_OF_ASC_NODE = 213.8735
ARG_OF_PERICENTER = 306.4096
MEAN_ANOMALY   = 53.5565

EPHEMERIS_TYPE = 0
CLASSIFICATION_TYPE = U
NORAD_CAT_ID   = 18749
ELEMENT_SET_NO = 999
REV_AT_EPOCH   = 3910
BSTAR          = .54531E-4
MEAN_MOTION_DOT = .495E-5
MEAN_MOTION_DDOT = 0

